[
  {
    "name": "KUIPER-00057",
    "noradId": "64517",
    "line1": "1 64517U 25134T   26162.33062097  .00000860  00000+0  14182-3 0  9997",
    "line2": "2 64517  51.8976 176.4944 0000529  77.5254 282.5767 14.79924275 53973"
  },
  {
    "name": "KUIPER-00058",
    "noradId": "64518",
    "line1": "1 64518U 25134U   26162.23471870  .00001708  00000+0  25293-3 0  9997",
    "line2": "2 64518  51.8995 171.8852 0000468  73.3193 286.7821 14.79932678 54031"
  },
  {
    "name": "KUIPER-00059",
    "noradId": "64519",
    "line1": "1 64519U 25134V   26162.30764444  .00001613  00000+0  24050-3 0  9993",
    "line2": "2 64519  51.8984 166.6063 0000516  83.8240 276.2781 14.79929957 54113"
  },
  {
    "name": "KUIPER-00060",
    "noradId": "64520",
    "line1": "1 64520U 25134W   26162.27388315 -.00001464  00000+0 -16307-3 0  9992",
    "line2": "2 64520  51.9003 166.8107 0000509  82.2149 277.8871 14.79927082 54093"
  },
  {
    "name": "KUIPER-00061",
    "noradId": "64521",
    "line1": "1 64521U 25134X   26162.56972405  .00002094  00000+0  30347-3 0  9992",
    "line2": "2 64521  51.8987 172.9617 0000539  45.9276 314.1731 14.79949612 54035"
  },
  {
    "name": "KUIPER-00062",
    "noradId": "64522",
    "line1": "1 64522U 25134Y   26162.29682367  .00001642  00000+0  24426-3 0  9997",
    "line2": "2 64522  51.8949 176.6576 0000372  80.7566 279.3439 14.79934408 53979"
  },
  {
    "name": "KUIPER-00063",
    "noradId": "64523",
    "line1": "1 64523U 25134Z   26162.35630727  .00001704  00000+0  25249-3 0  9991",
    "line2": "2 64523  51.9005 183.9293 0000516  89.0375 271.0646 14.79934232 53874"
  },
  {
    "name": "KUIPER-00064",
    "noradId": "64524",
    "line1": "1 64524U 25134AA  26162.35898110  .00001642  00000+0  24425-3 0  9990",
    "line2": "2 64524  51.9017 181.3411 0000439  86.1704 273.9308 14.79939944 53916"
  },
  {
    "name": "KUIPER-00065",
    "noradId": "64525",
    "line1": "1 64525U 25134AB  26162.35361495 -.00000173  00000+0  63638-5 0  9992",
    "line2": "2 64525  51.9005 186.5324 0000482  90.1822 269.9196 14.79922903 53825"
  },
  {
    "name": "KUIPER-00066",
    "noradId": "64526",
    "line1": "1 64526U 25134AC  26162.18465983  .00000923  00000+0  15014-3 0  9996",
    "line2": "2 64526  51.9005 124.5620 0000646  63.8195 296.2833 14.79924454 54699"
  },
  {
    "name": "KUIPER-00069",
    "noradId": "64816",
    "line1": "1 64816U 25151A   26162.37799080  .00002331  00000+0  33475-3 0  9992",
    "line2": "2 64816  51.9021 226.3496 0000586  89.8252 270.2778 14.79923528 50637"
  },
  {
    "name": "KUIPER-00070",
    "noradId": "64817",
    "line1": "1 64817U 25151B   26162.66668981  .00040815  00000+0  54035-2 0  9993",
    "line2": "2 64817  51.8995 249.9862 0001781  75.0719 350.3904 14.79516324  5248"
  },
  {
    "name": "KUIPER-00071",
    "noradId": "64818",
    "line1": "1 64818U 25151C   26162.52252573  .00006243  00000+0  84672-3 0  9993",
    "line2": "2 64818  51.9031 248.1640 0000639  93.1249 266.9786 14.79956313 49161"
  },
  {
    "name": "KUIPER-00072",
    "noradId": "64819",
    "line1": "1 64819U 25151D   26162.44291484 -.00002182  00000+0 -25767-3 0  9999",
    "line2": "2 64819  51.8971 228.4709 0000486  76.5265 283.5752 14.79875344 49436"
  },
  {
    "name": "KUIPER-00073",
    "noradId": "64820",
    "line1": "1 64820U 25151E   26162.48879166  .00000566  00000+0  10321-3 0  9996",
    "line2": "2 64820  51.8989 248.2980 0000199  51.2176 308.8804 14.79933963 50343"
  },
  {
    "name": "KUIPER-00074",
    "noradId": "64821",
    "line1": "1 64821U 25151F   26162.91668981  .00159108  00000+0  62454-3 0  9997",
    "line2": "2 64821  51.8841 172.4652 0008754  13.7934 331.3171 15.85897699  3388"
  },
  {
    "name": "KUIPER-00075",
    "noradId": "64822",
    "line1": "1 64822U 25151G   26162.62300155  .00057845  00000+0  12290-2 0  9999",
    "line2": "2 64822  51.8658 123.6286 0002214 260.3473  99.7267 15.44447676 50901"
  },
  {
    "name": "KUIPER-00076",
    "noradId": "64823",
    "line1": "1 64823U 25151H   26162.49956083  .00002768  00000+0  39190-3 0  9995",
    "line2": "2 64823  51.9003 238.2683 0000337  95.1918 264.9082 14.79943012 49308"
  },
  {
    "name": "KUIPER-00077",
    "noradId": "64824",
    "line1": "1 64824U 25151J   26162.49404806  .00003069  00000+0  43086-3 0  9991",
    "line2": "2 64824  51.9014 243.3082 0000397 103.3088 256.7919 14.79984482 49233"
  },
  {
    "name": "KUIPER-00078",
    "noradId": "64825",
    "line1": "1 64825U 25151K   26162.53063161  .00002791  00000+0  39502-3 0  9991",
    "line2": "2 64825  51.9008 240.6282 0000605 102.8212 257.2818 14.79921213 49275"
  },
  {
    "name": "KUIPER-00079",
    "noradId": "64826",
    "line1": "1 64826U 25151L   26162.49148179  .00000431  00000+0  85561-4 0  9996",
    "line2": "2 64826  51.8990 245.7650 0000429 103.1894 256.9116 14.79929064 50398"
  },
  {
    "name": "KUIPER-00080",
    "noradId": "64827",
    "line1": "1 64827U 25151M   26162.52523201 -.00003232  00000+0 -39510-3 0  9990",
    "line2": "2 64827  51.9013 245.6266 0000550 132.9962 227.1047 14.79941015 49200"
  },
  {
    "name": "KUIPER-00082",
    "noradId": "64828",
    "line1": "1 64828U 25151N   26162.50494716  .00001324  00000+0  20259-3 0  9995",
    "line2": "2 64828  51.8998 233.2610 0000488  76.6893 283.4124 14.79935607 49374"
  },
  {
    "name": "KUIPER-00083",
    "noradId": "64829",
    "line1": "1 64829U 25151P   26162.42934840  .00000259  00000+0  63045-4 0  9991",
    "line2": "2 64829  51.9001 241.0822 0000719 102.5647 257.5396 14.79928027 50447"
  },
  {
    "name": "KUIPER-00084",
    "noradId": "64830",
    "line1": "1 64830U 25151Q   26162.95879645  .00001648  00000+0  24507-3 0  9994",
    "line2": "2 64830  51.9009 248.7266 0000429  92.2015 267.8997 14.79932567 49190"
  },
  {
    "name": "KUIPER-00085",
    "noradId": "64831",
    "line1": "1 64831U 25151R   26162.47120419  .00002634  00000+0  37436-3 0  9991",
    "line2": "2 64831  51.9022 233.4541 0000528  99.3298 260.7724 14.79940380 49365"
  },
  {
    "name": "KUIPER-00086",
    "noradId": "64832",
    "line1": "1 64832U 25151S   26162.52789594 -.00003013  00000+0 -36627-3 0  9998",
    "line2": "2 64832  51.9004 243.1543 0000662 126.1873 233.9151 14.79941960 49230"
  },
  {
    "name": "KUIPER-00087",
    "noradId": "64833",
    "line1": "1 64833U 25151T   26162.47929066  .00000874  00000+0  14370-3 0  9994",
    "line2": "2 64833  51.8988 225.8387 0000654  98.0790 262.0247 14.79926295 49468"
  },
  {
    "name": "KUIPER-00089",
    "noradId": "64834",
    "line1": "1 64834U 25151U   26162.47389632  .00002506  00000+0  35755-3 0  9998",
    "line2": "2 64834  51.8996 230.8806 0000516  95.1269 264.9752 14.79939582 49405"
  },
  {
    "name": "KUIPER-00090",
    "noradId": "64835",
    "line1": "1 64835U 25151V   26162.48198157  .00002420  00000+0  34631-3 0  9997",
    "line2": "2 64835  51.8978 223.3578 0000478  86.4923 273.6094 14.79939307 49508"
  },
  {
    "name": "KUIPER-00091",
    "noradId": "64836",
    "line1": "1 64836U 25151W   26162.47659278  .00002479  00000+0  35395-3 0  9995",
    "line2": "2 64836  51.9005 228.3833 0000435  85.4941 274.6071 14.79938385 49435"
  },
  {
    "name": "KUIPER-00092",
    "noradId": "64837",
    "line1": "1 64837U 25151X   26162.46851269  .00000014  00000+0  30785-4 0  9991",
    "line2": "2 64837  51.8996 235.9118 0000518  94.3282 265.7739 14.79927883 50540"
  },
  {
    "name": "KUIPER-00093",
    "noradId": "64838",
    "line1": "1 64838U 25151Y   26162.46581086  .00000096  00000+0  41660-4 0  9993",
    "line2": "2 64838  51.9001 238.4000 0000547  92.8607 267.2418 14.79927615 49297"
  },
  {
    "name": "KUIPER-00094",
    "noradId": "64839",
    "line1": "1 64839U 25151Z   26162.91668981  .00008610  00000+0  11452-2 0  9998",
    "line2": "2 64839  51.9017 191.4772 0001436  66.3731 281.8175 14.80365614  5708"
  },
  {
    "name": "KUIPER-00081",
    "noradId": "65132",
    "line1": "1 65132U 25171A   26162.11568811  .00003370  00000+0  47059-3 0  9991",
    "line2": "2 65132  51.9002  94.9431 0000813  81.8009 278.3045 14.79959555 46877"
  },
  {
    "name": "KUIPER-00088",
    "noradId": "65133",
    "line1": "1 65133U 25171B   26162.56957025  .00003261  00000+0  45665-3 0  9990",
    "line2": "2 65133  51.8993 110.4400 0000784  69.3794 290.7253 14.79928305 46693"
  },
  {
    "name": "KUIPER-00095",
    "noradId": "65134",
    "line1": "1 65134U 25171C   26162.52360406  .00001591  00000+0  23767-3 0  9991",
    "line2": "2 65134  51.8974  90.6959 0000709  95.0194 265.0849 14.79935882 46962"
  },
  {
    "name": "KUIPER-00096",
    "noradId": "65135",
    "line1": "1 65135U 25171D   26162.54389664  .00002137  00000+0  30930-3 0  9998",
    "line2": "2 65135  51.8977 103.0508 0000789  88.1158 271.9895 14.79931767 46792"
  },
  {
    "name": "KUIPER-00097",
    "noradId": "65136",
    "line1": "1 65136U 25171E   26162.54120495  .00001686  00000+0  25009-3 0  9993",
    "line2": "2 65136  51.9015 105.7122 0000748  71.7999 288.3044 14.79937784 46742"
  },
  {
    "name": "KUIPER-00098",
    "noradId": "65137",
    "line1": "1 65137U 25171F   26162.53848616 -.00000957  00000+0 -96534-4 0  9999",
    "line2": "2 65137  51.9008 108.0931 0000654  93.9011 266.2026 14.79932716 46066"
  },
  {
    "name": "KUIPER-00099",
    "noradId": "65138",
    "line1": "1 65138U 25171G   26162.51552427  .00001095  00000+0  17267-3 0  9997",
    "line2": "2 65138  51.9017  98.1943 0000955  88.5562 271.5509 14.79932616 46855"
  },
  {
    "name": "KUIPER-00100",
    "noradId": "65139",
    "line1": "1 65139U 25171H   26162.95713573 -.00000651  00000+0 -56342-4 0  9994",
    "line2": "2 65139  51.8997  93.7126 0000935 111.3664 248.7399 14.79944702 46955"
  },
  {
    "name": "KUIPER-00102",
    "noradId": "65140",
    "line1": "1 65140U 25171J   26162.54928034  .00002497  00000+0  35635-3 0  9990",
    "line2": "2 65140  51.8975  98.0145 0000747  91.3852 268.7196 14.79935556 46852"
  }
]